STARLINK-34804          
1 65026U 25161M   26054.54702769  .00022097  00000+0  75574-3 0  9991
2 65026  53.1605 359.9584 0001313  76.3184 283.7963 15.30210493 33171
STARLINK-34655          
1 65027U 25161N   26054.57341561  .00010209  00000+0  35643-3 0  9999
2 65027  53.1624   0.1161 0001693  91.1899 268.9296 15.30190368 33169
STARLINK-34807          
1 65028U 25161P   26054.57752140  .00050152  00000+0  16939-2 0  9996
2 65028  53.1616 359.4332 0001247  87.8043 272.3101 15.30202300 33174
STARLINK-34731          
1 65029U 25161Q   26054.28259988  .00036982  00000+0  12545-2 0  9991
2 65029  53.1597   1.1527 0001244  88.1237 271.9906 15.30201162 33124
STARLINK-34614          
1 65030U 25161R   26054.56919310  .00025575  00000+0  87271-3 0  9991
2 65030  53.1616   0.0966 0001812  85.9811 274.1397 15.30196838 33163
STARLINK-34677          
1 65031U 25161S   26054.56497148  .00030692  00000+0  10438-2 0  9998
2 65031  53.1618   0.0692 0001444  91.0519 269.0647 15.30208129 32062
STARLINK-34656          
1 65032U 25161T   26054.56286107  .00034842  00000+0  11827-2 0  9994
2 65032  53.1617   0.0560 0001640  82.3509 277.7678 15.30209453 33169
STARLINK-34671          
1 65033U 25161U   26054.57130718  .00031583  00000+0  10740-2 0  9994
2 65033  53.1615   0.1084 0001969  95.1379 264.9846 15.30195894 32067
STARLINK-34610          
1 65034U 25161V   26054.28787852  .00030087  00000+0  10244-2 0  9997
2 65034  53.1602   1.1838 0000908  99.2095 260.9009 15.30183410 32028
STARLINK-34286          
1 65035U 25161W   26054.54069573  .00025407  00000+0  86693-3 0  9992
2 65035  53.1600 359.9177 0001190  77.6487 282.4647 15.30203122 32060
STARLINK-34770          
1 65036U 25161X   26054.23311763  .00012403  00000+0  43010-3 0  9998
2 65036  53.1613   1.5563 0000927  71.1151 288.9950 15.30206127 32019
STARLINK-34776          
1 65037U 25161Y   26054.55547391  .00018554  00000+0  63701-3 0  9994
2 65037  53.1609   0.0095 0002185  84.4468 275.6782 15.30199928 32066
STARLINK-34827          
1 65038U 25161Z   26054.57857608  .00031087  00000+0  10572-2 0  9995
2 65038  53.1619 359.4377 0001637  85.0522 275.0666 15.30202796 32075
STARLINK-34721          
1 65039U 25161AA  26054.57646419  .00027721  00000+0  94439-3 0  9997
2 65039  53.1623 359.4248 0001298  81.5484 278.5664 15.30206714 32079
STARLINK-34819          
1 65040U 25161AB  26054.57446656  .00033342  00000+0  11329-2 0  9992
2 65040  53.1613   0.1217 0001030  83.9567 276.1551 15.30197974 32063
STARLINK-34820          
1 65041U 25161AC  26054.14036156  .00011906  00000+0  41324-3 0  9997
2 65041  53.1606   1.6840 0000998  69.6286 290.4822 15.30215777 32001
