[{"OBJECT_NAME":"STARLINK-34804","OBJECT_ID":"2025-161M","EPOCH":"2026-02-23T13:07:43.192416","MEAN_MOTION":15.30210493,"ECCENTRICITY":0.00013133,"INCLINATION":53.1605,"RA_OF_ASC_NODE":359.9584,"ARG_OF_PERICENTER":76.3184,"MEAN_ANOMALY":283.7963,"EPHEMERIS_TYPE":0,"CLASSIFICATION_TYPE":"U","NORAD_CAT_ID":65026,"ELEMENT_SET_NO":999,"REV_AT_EPOCH":3317,"BSTAR":0.00075573613,"MEAN_MOTION_DOT":0.00022097,"MEAN_MOTION_DDOT":0},{"OBJECT_NAME":"STARLINK-34655","OBJECT_ID":"2025-161N","EPOCH":"2026-02-23T13:45:43.108704","MEAN_MOTION":15.30190368,"ECCENTRICITY":0.00016931,"INCLINATION":53.1624,"RA_OF_ASC_NODE":0.1161,"ARG_OF_PERICENTER":91.1899,"MEAN_ANOMALY":268.9296,"EPHEMERIS_TYPE":0,"CLASSIFICATION_TYPE":"U","NORAD_CAT_ID":65027,"ELEMENT_SET_NO":999,"REV_AT_EPOCH":3316,"BSTAR":0.00035643416,"MEAN_MOTION_DOT":0.00010209,"MEAN_MOTION_DDOT":0},{"OBJECT_NAME":"STARLINK-34807","OBJECT_ID":"2025-161P","EPOCH":"2026-02-23T13:51:37.848960","MEAN_MOTION":15.302023,"ECCENTRICITY":0.00012472,"INCLINATION":53.1616,"RA_OF_ASC_NODE":359.4332,"ARG_OF_PERICENTER":87.8043,"MEAN_ANOMALY":272.3101,"EPHEMERIS_TYPE":0,"CLASSIFICATION_TYPE":"U","NORAD_CAT_ID":65028,"ELEMENT_SET_NO":999,"REV_AT_EPOCH":3317,"BSTAR":0.0016939006,"MEAN_MOTION_DOT":0.00050152,"MEAN_MOTION_DDOT":0},{"OBJECT_NAME":"STARLINK-34731","OBJECT_ID":"2025-161Q","EPOCH":"2026-02-23T06:46:56.629632","MEAN_MOTION":15.30201162,"ECCENTRICITY":0.00012448,"INCLINATION":53.1597,"RA_OF_ASC_NODE":1.1527,"ARG_OF_PERICENTER":88.1237,"MEAN_ANOMALY":271.9906,"EPHEMERIS_TYPE":0,"CLASSIFICATION_TYPE":"U","NORAD_CAT_ID":65029,"ELEMENT_SET_NO":999,"REV_AT_EPOCH":3312,"BSTAR":0.0012544886,"MEAN_MOTION_DOT":0.00036982,"MEAN_MOTION_DDOT":0},{"OBJECT_NAME":"STARLINK-34614","OBJECT_ID":"2025-161R","EPOCH":"2026-02-23T13:39:38.283840","MEAN_MOTION":15.30196838,"ECCENTRICITY":0.00018125,"INCLINATION":53.1616,"RA_OF_ASC_NODE":0.0966,"ARG_OF_PERICENTER":85.9811,"MEAN_ANOMALY":274.1397,"EPHEMERIS_TYPE":0,"CLASSIFICATION_TYPE":"U","NORAD_CAT_ID":65030,"ELEMENT_SET_NO":999,"REV_AT_EPOCH":3316,"BSTAR":0.00087270684,"MEAN_MOTION_DOT":0.00025575,"MEAN_MOTION_DDOT":0},{"OBJECT_NAME":"STARLINK-34677","OBJECT_ID":"2025-161S","EPOCH":"2026-02-23T13:33:33.535872","MEAN_MOTION":15.30208129,"ECCENTRICITY":0.00014448,"INCLINATION":53.1618,"RA_OF_ASC_NODE":0.0692,"ARG_OF_PERICENTER":91.0519,"MEAN_ANOMALY":269.0647,"EPHEMERIS_TYPE":0,"CLASSIFICATION_TYPE":"U","NORAD_CAT_ID":65031,"ELEMENT_SET_NO":999,"REV_AT_EPOCH":3206,"BSTAR":0.001043842,"MEAN_MOTION_DOT":0.00030692,"MEAN_MOTION_DDOT":0},{"OBJECT_NAME":"STARLINK-34656","OBJECT_ID":"2025-161T","EPOCH":"2026-02-23T13:30:31.196448","MEAN_MOTION":15.30209453,"ECCENTRICITY":0.00016407,"INCLINATION":53.1617,"RA_OF_ASC_NODE":0.056,"ARG_OF_PERICENTER":82.3509,"MEAN_ANOMALY":277.7678,"EPHEMERIS_TYPE":0,"CLASSIFICATION_TYPE":"U","NORAD_CAT_ID":65032,"ELEMENT_SET_NO":999,"REV_AT_EPOCH":3316,"BSTAR":0.0011826571,"MEAN_MOTION_DOT":0.00034842,"MEAN_MOTION_DDOT":0},{"OBJECT_NAME":"STARLINK-34671","OBJECT_ID":"2025-161U","EPOCH":"2026-02-23T13:42:40.940352","MEAN_MOTION":15.30195894,"ECCENTRICITY":0.00019697,"INCLINATION":53.1615,"RA_OF_ASC_NODE":0.1084,"ARG_OF_PERICENTER":95.1379,"MEAN_ANOMALY":264.9846,"EPHEMERIS_TYPE":0,"CLASSIFICATION_TYPE":"U","NORAD_CAT_ID":65033,"ELEMENT_SET_NO":999,"REV_AT_EPOCH":3206,"BSTAR":0.0010740484,"MEAN_MOTION_DOT":0.00031583,"MEAN_MOTION_DDOT":0},{"OBJECT_NAME":"STARLINK-34610","OBJECT_ID":"2025-161V","EPOCH":"2026-02-23T06:54:32.704128","MEAN_MOTION":15.3018341,"ECCENTRICITY":9.084e-5,"INCLINATION":53.1602,"RA_OF_ASC_NODE":1.1838,"ARG_OF_PERICENTER":99.2095,"MEAN_ANOMALY":260.9009,"EPHEMERIS_TYPE":0,"CLASSIFICATION_TYPE":"U","NORAD_CAT_ID":65034,"ELEMENT_SET_NO":999,"REV_AT_EPOCH":3202,"BSTAR":0.0010243656,"MEAN_MOTION_DOT":0.00030087,"MEAN_MOTION_DDOT":0},{"OBJECT_NAME":"STARLINK-34286","OBJECT_ID":"2025-161W","EPOCH":"2026-02-23T12:58:36.111072","MEAN_MOTION":15.30203122,"ECCENTRICITY":0.00011901,"INCLINATION":53.16,"RA_OF_ASC_NODE":359.9177,"ARG_OF_PERICENTER":77.6487,"MEAN_ANOMALY":282.4647,"EPHEMERIS_TYPE":0,"CLASSIFICATION_TYPE":"U","NORAD_CAT_ID":65035,"ELEMENT_SET_NO":999,"REV_AT_EPOCH":3206,"BSTAR":0.00086692913,"MEAN_MOTION_DOT":0.00025407,"MEAN_MOTION_DDOT":0},{"OBJECT_NAME":"STARLINK-34770","OBJECT_ID":"2025-161X","EPOCH":"2026-02-23T05:35:41.363232","MEAN_MOTION":15.30206127,"ECCENTRICITY":9.27e-5,"INCLINATION":53.1613,"RA_OF_ASC_NODE":1.5563,"ARG_OF_PERICENTER":71.1151,"MEAN_ANOMALY":288.995,"EPHEMERIS_TYPE":0,"CLASSIFICATION_TYPE":"U","NORAD_CAT_ID":65036,"ELEMENT_SET_NO":999,"REV_AT_EPOCH":3201,"BSTAR":0.00043010388,"MEAN_MOTION_DOT":0.00012403,"MEAN_MOTION_DDOT":0},{"OBJECT_NAME":"STARLINK-34776","OBJECT_ID":"2025-161Y","EPOCH":"2026-02-23T13:19:52.945824","MEAN_MOTION":15.30199928,"ECCENTRICITY":0.00021853,"INCLINATION":53.1609,"RA_OF_ASC_NODE":0.0095,"ARG_OF_PERICENTER":84.4468,"MEAN_ANOMALY":275.6782,"EPHEMERIS_TYPE":0,"CLASSIFICATION_TYPE":"U","NORAD_CAT_ID":65037,"ELEMENT_SET_NO":999,"REV_AT_EPOCH":3206,"BSTAR":0.00063700716,"MEAN_MOTION_DOT":0.00018554,"MEAN_MOTION_DDOT":0},{"OBJECT_NAME":"STARLINK-34827","OBJECT_ID":"2025-161Z","EPOCH":"2026-02-23T13:53:08.973312","MEAN_MOTION":15.30202796,"ECCENTRICITY":0.00016378,"INCLINATION":53.1619,"RA_OF_ASC_NODE":359.4377,"ARG_OF_PERICENTER":85.0522,"MEAN_ANOMALY":275.0666,"EPHEMERIS_TYPE":0,"CLASSIFICATION_TYPE":"U","NORAD_CAT_ID":65038,"ELEMENT_SET_NO":999,"REV_AT_EPOCH":3207,"BSTAR":0.0010572478,"MEAN_MOTION_DOT":0.00031087,"MEAN_MOTION_DDOT":0},{"OBJECT_NAME":"STARLINK-34721","OBJECT_ID":"2025-161AA","EPOCH":"2026-02-23T13:50:06.506016","MEAN_MOTION":15.30206714,"ECCENTRICITY":0.00012988,"INCLINATION":53.1623,"RA_OF_ASC_NODE":359.4248,"ARG_OF_PERICENTER":81.5484,"MEAN_ANOMALY":278.5664,"EPHEMERIS_TYPE":0,"CLASSIFICATION_TYPE":"U","NORAD_CAT_ID":65039,"ELEMENT_SET_NO":999,"REV_AT_EPOCH":3207,"BSTAR":0.00094439223,"MEAN_MOTION_DOT":0.00027721,"MEAN_MOTION_DDOT":0},{"OBJECT_NAME":"STARLINK-34819","OBJECT_ID":"2025-161AB","EPOCH":"2026-02-23T13:47:13.910784","MEAN_MOTION":15.30197974,"ECCENTRICITY":0.00010306,"INCLINATION":53.1613,"RA_OF_ASC_NODE":0.1217,"ARG_OF_PERICENTER":83.9567,"MEAN_ANOMALY":276.1551,"EPHEMERIS_TYPE":0,"CLASSIFICATION_TYPE":"U","NORAD_CAT_ID":65040,"ELEMENT_SET_NO":999,"REV_AT_EPOCH":3206,"BSTAR":0.0011328805,"MEAN_MOTION_DOT":0.00033342,"MEAN_MOTION_DDOT":0},{"OBJECT_NAME":"STARLINK-34820","OBJECT_ID":"2025-161AC","EPOCH":"2026-02-23T03:22:07.238784","MEAN_MOTION":15.30215777,"ECCENTRICITY":9.988e-5,"INCLINATION":53.1606,"RA_OF_ASC_NODE":1.684,"ARG_OF_PERICENTER":69.6286,"MEAN_ANOMALY":290.4822,"EPHEMERIS_TYPE":0,"CLASSIFICATION_TYPE":"U","NORAD_CAT_ID":65041,"ELEMENT_SET_NO":999,"REV_AT_EPOCH":3200,"BSTAR":0.00041324301,"MEAN_MOTION_DOT":0.00011906,"MEAN_MOTION_DDOT":0}]
